#dP2025 11 16  0  0  0.00000000     289   u+U IGb20 FIT  GFZ                    
## 2393      0.00000000   300.00000000 60995 0.0000000000000                    
+  130   C01C02C03C04C05C06C07C08C09C10C11C12C13C14C16C19C20                    
+        C21C22C23C24C25C26C27C28C29C30C32C33C34C35C36C37C38                    
+        C39C40C41C42C43C44C45C47C48C49C50C59C62E02E03E04E05                    
+        E06E07E08E09E10E11E12E13E14E15E16E18E19E21E23E25E26                    
+        E27E29E30E31E33E34E36G01G02G03G04G05G06G07G08G09G10                    
+        G11G12G13G14G15G16G17G18G19G20G21G22G23G24G25G26G27                    
+        G28G29G30G31G32J02J03J04J07R03R04R05R07R08R09R11R12                    
+        R14R15R16R17R18R19R20R21R22R24R26 00 00 00 00 00 00                    
++        10 10 10 10 10 10 10 10 10 10 10  9 10  8  9  7  5                    
++         6  5  5  5  5  8  7  5  5  6  7  6  5  6  6  6 10                    
++        10 10  7  9  6  5  8  6  5  5  8 10 10  5  5  5  5                    
++         5  5  5  6  7  5  5  7  5  6  6  6  5  6  6  7  6                    
++         5  6  7  5  5  7  5  7  8  6  5  5  5  5  7  5  5                    
++         5  5  7  6  5  6  7  6  6  7  7  5  5  6  6  5  5                    
++         5  7  5  5  5 10  8 10 10  6  6  5  7  6  7  6  5                    
++         5  5  5  5  7  6 10  5  7  7  8  0  0  0  0  0  0                    
%c M  cc GPS ccc cccc cccc cccc cccc ccccc ccccc ccccc ccccc                    
%c cc cc ccc ccc cccc cccc cccc cccc ccccc ccccc ccccc ccccc                    
%f  1.2500000  1.025000000  0.00000000000  0.000000000000000                    
%f  0.0000000  0.000000000  0.00000000000  0.000000000000000                    
%i    0    0    0    0      0      0      0      0         0                    
%i    0    0    0    0      0      0      0      0         0                    
/* PCV:IGS20_2375 OL/AL:FES2014b NONE     YN CLK:CoN ORB:CoN                    
/*     GFZ Helmholtz Centre for Geosciences                                     
/*                                                                              
/*                                                                              
*  2025 11 16  7 30  0.00000000                                                 
PC01 -34290.584390  24463.825363   -983.879522   -247.414136                    
PC02   4477.614456  41939.958131    180.508982    716.559946                    
PC03 -14770.580319  39501.096191   -643.034262    884.522265                    
PC04 -39584.816926  14315.690749  -2232.545743    645.455646                    
PC05  21904.154717  35997.047695    899.521597   -261.171945                    
PC06 -12992.997158  23960.985481  32237.078087    175.938458                    
PC07 -11969.598537  40597.881134     44.363355    330.838174                    
PC08   1596.576742  29344.796088 -30099.794441   -755.612347                    
PC09  -1706.803326  24706.151227  34680.513402     47.600774                    
PC10  -5530.315210  41501.183997  -6884.017953   -297.061223                    
PC11  24292.830681 -11703.096951  -7120.915326    748.380871                    
PC12  18267.790059   3884.029944 -20691.429741     44.384982                    
PC13   8665.809889  33469.617659 -23717.044026   -199.988114                    
PC14  14130.061991  -7928.223077  22712.269919   -542.012681                    
PC16 -16172.326759  22994.769116  31687.972719   -909.860894                    
PC19 -10244.682412  17646.639499 -19032.732655   -947.652259                    
PC20 -15577.936858   -913.676582 -23133.557305   -906.692705                    
PC21  11965.619906  21323.827450  13473.752160   -923.890250                    
PC22   1308.021438  27631.695075  -3769.406259    411.549515                    
PC23  -2114.867525 -17606.193592 -21554.986081   -551.623298                    
PC24  26607.834331   5667.698251  -6175.916529    143.763028                    
PC25  16505.940882  -9591.669582 -20365.240172    913.160212                    
PC26  21022.005143  15381.287902   9937.040980   -552.601853                    
PC27 -10650.865528 -12219.258533  22699.596949    556.681036                    
PC28   4474.838332 -20392.645481  18526.067698    448.241988                    
PC29 -21137.634107  18221.303915    -60.192048    523.804001                    
PC30 -22674.317953   4802.524121  15522.687014    321.532958                    
PC32 -12088.333441 -21301.406851 -13356.021095   -962.897188                    
PC33  10202.965222 -17601.551344  19089.227112   -971.485802                    
PC34  22797.564725  -5042.956238 -15305.996234    821.561235                    
PC35  -5098.563399  21048.954149 -17594.848100   -161.109565                    
PC36 -16906.646551   9079.268756  20279.209782    310.378827                    
PC37 -19705.856947 -16367.487383 -11113.108189   -889.555500                    
PC38  -4151.568346  26734.703704 -32218.274202    258.427859                    
PC39 -22193.000638  22419.289690  27910.163752    -15.789128                    
PC40 -18334.895472  38175.586370    578.552001   -184.361306                    
PC41   -608.089831 -27444.102592   5003.968369   -957.714540                    
PC42  15801.735176   3559.350543  22762.660866   -946.135440                    
PC43  20500.394087 -18905.644024   1275.302867    125.190387                    
PC44  11198.673489  11945.603805 -22611.748831    946.684707                    
PC45   1112.929613  17296.529368  21852.352859   -554.453805                    
PC47 -23821.352096  12978.148061   6537.092502   -330.915085                    
PC48 -14601.240597   7253.593962 -22645.965543    717.975859                    
PC49  14453.078135 -21280.170313  10825.690035   -369.642090                    
PC50  15242.665146  13550.284552  19043.444486   -478.442120                    
PC59 -32346.878416  27049.685111   -763.569606     -0.006408                    
PC62 -39646.474358  14394.286529    316.957915     -0.305036                    
PE02  15495.666870  -6922.633418 -24258.523266     -4.364606                    
PE03  20135.019642 -16707.962504  13818.236718     18.185883                    
PE04 -11228.432313  26990.865116   4655.258557   -397.027948                    
PE05  17113.952454   3226.361592  23928.650899   4900.358702                    
PE06  -3717.560017  26119.316786  13393.713577   -194.251574                    
PE07  -3944.127327 -21461.060935 -20001.230387    -27.283002                    
PE08  11518.370811 -26910.132463  -4372.340798    -38.487904                    
PE09   3761.184508  21440.593419  20055.071967    -94.828423                    
PE10   1977.015179  15976.406532 -24834.242115   -751.138305                    
PE11  14042.447343  14089.656453 -21922.400424   2633.605626                    
PE12  -8710.718829  15438.714665 -23697.428701     -8.575447                    
PE13 -13482.129302 -14187.909308  22217.065615    -43.123403                    
PE14 -21014.662397  16624.188287  14775.902304   3828.653581                    
PE15   9531.655924 -15239.076104  23533.298127   -214.371282                    
PE16  19088.541120  21197.748161  -7922.916918    -75.515138                    
PE18  18589.965074  -4317.327681 -17568.698494   2120.102804                    
PE19 -20357.923836  15533.800967 -14847.862329   2452.682461                    
PE21 -20947.593517 -13423.480587  16038.692763   -702.237603                    
PE23 -15398.735513   7027.080014  24275.792921    -15.941621                    
PE25  20919.389783  13898.163118 -15655.720620     21.354402                    
PE26 -28194.447038  -4719.201868   7701.736975    135.092349                    
PE27 -13941.910979 -26052.300444  -1886.687749   -826.358464                    
PE29 -17342.786602  -3113.581025 -23793.029452   -151.100590                    
PE30    839.832335 -23433.900062 -18087.579520   -416.886974                    
PE31  -1202.090791  23116.189773  18447.753275    -99.600280                    
PE33 -26659.922371   7127.041276 -10705.221504      3.707949                    
PE34  26493.673954  -7343.458399  10961.320443   -217.712013                    
PE36  28080.472947   4893.039853  -7980.627525   -481.163979                    
PG01   6783.788008  14384.503460 -21275.775859    354.278956                    
PG02  -4787.236923  15785.951704 -20274.911447    -26.516586                    
PG03  11294.846999  22678.107783  -8335.594673    643.496853                    
PG04    477.749768  22855.676637  13396.246609     24.571397                    
PG05   1722.243636 -17674.004888  19565.770768   -223.728051                    
PG06  26105.489181  -4991.033515   1816.325271   -572.852711                    
PG07  20995.306726   7536.821592  15310.891526   -107.381908                    
PG08  -5307.354755  25506.345341  -3788.780999    522.035841                    
PG09  10069.344182  13869.251986  20166.914380    762.086691                    
PG10 -19092.726315  -5280.643897 -17606.270575   -562.232850                    
PG11  18841.285732 -12229.275010  14173.698510   -543.558979                    
PG12  -7267.493743 -23250.290249 -10898.023844   -603.568775                    
PG13  13435.757267 -22701.422222   1215.499507    694.023986                    
PG14  20310.889254   7300.255344 -15585.744519    714.584262                    
PG15   1627.523108 -26170.456125  -4522.488234    358.273782                    
PG16  -6912.835290  15037.524044  20294.406466    147.732231                    
PG17  16702.788242  -3130.260477 -20087.044342     31.302250                    
PG18 -22160.527010  -6081.507212  13595.212069   -501.586256                    
PG19  17914.863560  -9488.014307 -16972.811563    675.210592                    
PG20  11616.577315 -10098.557853  21738.997075    362.226205                    
PG21  11519.056518  -9926.535049  21781.169293    326.326533                    
PG22  17525.848624   1388.570529 -19464.763059    -78.057142                    
PG23 -19922.623795 -16544.926521  -6440.641723    572.751983                    
PG24   -732.795456 -16277.032338 -21463.742491   -235.456534                    
PG25 -16612.904297 -20871.860080  -1555.575512    461.350628                    
PG26 -16552.667790   4706.355873  20098.093135   -280.800994                    
PG27 -12387.987546  22382.548314   5893.148561    -37.745013                    
PG28 -26148.023118   4672.261018   -689.448578   -631.371431                    
PG29  -7027.327085 -16783.449392  19257.442445   -424.616557                    
PG30  25829.983021    588.973018   6901.261947     26.105233                    
PG31 -22772.823807  10057.858507   9425.564097   -182.651905                    
PG32 -16433.333889   4938.132145 -19965.010916   -246.358152                    
PJ02 -27196.495245  24420.330348  26346.891274     -0.196471                    
PJ03 -33188.201345  17823.472386 -14173.549706     -3.443684                    
PJ04 -20767.124130  31683.621546 -13675.144110     -1.819767                    
PJ07 -25395.643419  33657.911726     25.580870     -0.005514                    
PR03  -9424.961773 -10658.700814 -21144.860949    133.372176                    
PR04 -10412.499583   7666.516964 -21956.661143    321.992704                    
PR05  -6246.368189  22039.667990 -11181.149610    159.141028                    
PR07   9388.506716  10840.756010  21116.837378    114.929141                    
PR08  10427.532832  -8151.681084  21873.533658     -2.816355                    
PR09  12657.063406  15999.049707  15388.691286    290.523997                    
PR11  19809.837154   3402.401513 -15711.181040      1.903489                    
PR12   5161.428840  -9763.208542 -22974.604348     61.679466                    
PR14 -21973.485870 -12920.692351    566.382187     30.373497                    
PR15 -19236.667640  -2519.531378  16569.726827     62.199528                    
PR16  -5021.394248   9683.755314  23063.621347     41.779014                    
PR17 -17169.932398   -859.523388  18879.971715    244.748796                    
PR18 -23225.142080   8939.377715   5523.204004    232.574294                    
PR19 -17155.905753  14705.654645 -11892.981447     20.717487                    
PR20   -833.064745  12125.300915 -22395.984769    226.306634                    
PR21  15115.488677   2753.579066 -20342.811106   -255.031053                    
PR22  23401.397133  -9360.471916  -3915.786230     95.849812                    
PR24   -836.914421 -11807.715308  22616.281082   -132.823769                    
PR26  10630.018082  -5042.525891  22648.609998   -101.745742                    
EOF                                     
